SIRION PATHFINDER-2     
1 43759U 18099B   26185.09445477  .00006036  00000+0  32928-3 0  9998
2 43759  97.4239 233.7506 0007500 233.6090 126.4451 15.14697580415183
CORVUS BC4              
1 43767U 18099K   26185.05786926  .00005584  00000+0  32303-3 0  9994
2 43767  97.4053 227.5447 0006758 309.2501  50.8130 15.12632166414957
M2 PATHFINDER           
1 45727U 20037E   26185.00427457  .00003324  00000+0  23993-3 0  9998
2 45727  97.8151  16.4248 0012991  96.2202 264.0504 15.04756058328023
NETSAT-4                
1 46504U 20068U   26184.32571208  .00018584  00000+0  40376-3 0  9992
2 46504  97.8599 193.8687 0003453 246.2093 113.8792 15.44406430318263
NETSAT-3                
1 46505U 20068V   26184.53877588  .00020356  00000+0  45943-3 0  9991
2 46505  97.8652 192.2952 0002916 273.1126  86.9786 15.43255269318209
NETSAT-1                
1 46506U 20068W   26184.95591468  .00014676  00000+0  43401-3 0  9993
2 46506  97.8749 186.8771 0002961 329.2480  30.8588 15.35030478317875
NETSAT-2                
1 46507U 20068X   26184.53678310  .00026161  00000+0  52421-3 0  9994
2 46507  97.8614 194.0527 0001376 295.5047  64.6059 15.46716085318269
GREENCUBE (IO-117)      
1 53109U 22080E   26184.68175866 -.00000003  00000+0  00000+0 0  9990
2 53109  70.1436 292.5090 0008960 286.0340  73.9332  6.42583230 93129
SITRO-AIS 5 (KATYS)     
1 57176U 23091L   26184.94755844  .00014883  00000+0  51608-3 0  9994
2 57176  97.5048 249.0098 0011812  50.5702 309.6582 15.29848081166906
SITRO-AIS 6 (CHIRKIN)   
1 57192U 23091AC  26185.16217982  .00013087  00000+0  50631-3 0  9993
2 57192  97.5054 248.2548 0012299  53.2732 306.9634 15.26267171166871
SITRO-AIS 8 (ANOKHIN)   
1 57193U 23091AD  26185.13080398  .00019060  00000+0  60599-3 0  9991
2 57193  97.5045 250.8532 0010646  46.1829 314.0291 15.32607386167048
SITRO-AIS 7 (FARTUSHNIY)
1 57194U 23091AE  26185.16883679  .00012667  00000+0  49489-3 0  9999
2 57194  97.5051 248.0775 0012222  54.4474 305.7902 15.25947427166864
SITRO-AIS 10 (BURDAEV)  
1 57199U 23091AK  26185.15516717  .00026543  00000+0  68169-3 0  9993
2 57199  97.5070 256.1095 0005964  24.9321 335.2211 15.39268228167371
SITRO-AIS 9 (SHCHUKIN)  
1 57201U 23091AM  26185.18704851  .00026320  00000+0  68713-3 0  9996
2 57201  97.5068 255.8587 0006215  24.8544 335.2999 15.38765397167360
SITRO-AIS 12 (SMIRENNIY)
1 57204U 23091AQ  26185.17443328  .00025254  00000+0  65329-3 0  9992
2 57204  97.5081 256.3236 0005734  18.9361 341.2096 15.39058234167384
SITRO-AIS 11 (SHEFFER)  
1 57208U 23091AU  26185.18310645  .00029373  00000+0  74840-3 0  9996
2 57208  97.5077 256.5902 0005643  18.8665 341.2788 15.39493382167408
SITRO-AIS 25            
1 59066U 24039R   26185.25954196  .00004093  00000+0  32061-3 0  9997
2 59066  95.3897 246.8246 0142231 268.2763  90.2168 14.93599485127270
SITRO-AIS 26            
1 59067U 24039S   26185.26325559  .00003581  00000+0  28221-3 0  9998
2 59067  95.3898 246.7213 0142578 268.8818  89.6070 14.93392380127264
SITRO-AIS 27            
1 59068U 24039T   26185.29568558  .00003249  00000+0  25396-3 0  9991
2 59068  95.3897 247.0234 0141778 267.3084  91.1907 14.93811664127292
SITRO-AIS 28            
1 59071U 24039U   26185.27274475  .00003172  00000+0  24794-3 0  9991
2 59071  95.3902 247.0559 0141555 267.2421  91.2596 14.93848266127293
GRBBETA                 
1 60237U 24128C   26185.20977022  .00004639  00000+0  31960-3 0  9999
2 60237  61.9890 156.5373 0038483 138.2596 222.1444 15.06748216108832
OOV-CUBE (TUBSAT-30)    
1 60240U 24128F   26185.22220281  .00002609  00000+0  20571-3 0  9994
2 60240  61.9937 166.1691 0042487 137.5173 222.9219 15.02838616108670
ROBUSTA-3A (MEDITERRAN*)
1 60243U 24128J   26185.26606150  .00009779  00000+0  57047-3 0  9997
2 60243  61.9859 147.8386 0039404 131.3870 229.0624 15.11860792109000
LASARSAT                
1 62391U 24247Q   26183.99211576  .00032189  00000+0  62059-3 0  9997
2 62391  44.9721 173.3382 0006547  74.4054 285.7559 15.47314006 85761
CROCUBE                 
1 62394U 24247T   26183.26077660  .00043599  00000+0  78103-3 0  9998
2 62394  44.9691 174.5342 0006479  75.1846 284.9762 15.49290769 85689
FORESAIL-1 PRIME        
1 66778U 25276DS  26185.12657498  .00006020  00000+0  29203-3 0  9996
2 66778  97.4191 258.0885 0003602  68.3680 291.7938 15.18858225 32970
KNACKSAT-2              
1 67683U 98067XZ  26184.80651841  .00050278  00000+0  57863-3 0  9997
2 67683  51.6260 210.7913 0008316 287.3397  72.6687 15.61443080 22879
