OBJECT_NAME,OBJECT_ID,EPOCH,MEAN_MOTION,ECCENTRICITY,INCLINATION,RA_OF_ASC_NODE,ARG_OF_PERICENTER,MEAN_ANOMALY,EPHEMERIS_TYPE,CLASSIFICATION_TYPE,NORAD_CAT_ID,ELEMENT_SET_NO,REV_AT_EPOCH,BSTAR,MEAN_MOTION_DOT,MEAN_MOTION_DDOT
SIRION PATHFINDER-2,2018-099B,2026-07-04T02:16:00.892128,15.14697580,.00075007,97.4239,233.7506,233.6090,126.4451,0,U,43759,999,41518,.32928266E-3,.6036E-4,0
CORVUS BC4,2018-099K,2026-07-04T01:23:19.904064,15.12632166,.00067583,97.4053,227.5447,309.2501,50.8130,0,U,43767,999,41495,.32302718E-3,.5584E-4,0
M2 PATHFINDER,2020-037E,2026-07-04T00:06:09.322848,15.04756058,.00129919,97.8151,16.4248,96.2202,264.0504,0,U,45727,999,32802,.23993349E-3,.3324E-4,0
NETSAT-4,2020-068U,2026-07-03T07:49:01.523712,15.44406430,.00034531,97.8599,193.8687,246.2093,113.8792,0,U,46504,999,31826,.40376206E-3,.18584E-3,0
NETSAT-3,2020-068V,2026-07-03T12:55:50.236032,15.43255269,.00029167,97.8652,192.2952,273.1126,86.9786,0,U,46505,999,31820,.45942591E-3,.20356E-3,0
NETSAT-1,2020-068W,2026-07-03T22:56:31.028352,15.35030478,.00029611,97.8749,186.8771,329.2480,30.8588,0,U,46506,999,31787,.43401147E-3,.14676E-3,0
NETSAT-2,2020-068X,2026-07-03T12:52:58.059840,15.46716085,.00013761,97.8614,194.0527,295.5047,64.6059,0,U,46507,999,31826,.52420969E-3,.26161E-3,0
GREENCUBE (IO-117),2022-080E,2026-07-03T16:21:43.948224,6.42583230,.00089609,70.1436,292.5090,286.0340,73.9332,0,U,53109,999,9312,0,-.3E-7,0
SITRO-AIS 5 (KATYS),2023-091L,2026-07-03T22:44:29.049216,15.29848081,.00118124,97.5048,249.0098,50.5702,309.6582,0,U,57176,999,16690,.51608031E-3,.14883E-3,0
SITRO-AIS 6 (CHIRKIN),2023-091AC,2026-07-04T03:53:32.336448,15.26267171,.00122998,97.5054,248.2548,53.2732,306.9634,0,U,57192,999,16687,.50630569E-3,.13087E-3,0
SITRO-AIS 8 (ANOKHIN),2023-091AD,2026-07-04T03:08:21.463872,15.32607386,.00106462,97.5045,250.8532,46.1829,314.0291,0,U,57193,999,16704,.60599E-3,.1906E-3,0
SITRO-AIS 7 (FARTUSHNIY),2023-091AE,2026-07-04T04:03:07.498656,15.25947427,.00122221,97.5051,248.0775,54.4474,305.7902,0,U,57194,999,16686,.49488811E-3,.12667E-3,0
SITRO-AIS 10 (BURDAEV),2023-091AK,2026-07-04T03:43:26.443488,15.39268228,.00059643,97.5070,256.1095,24.9321,335.2211,0,U,57199,999,16737,.68168557E-3,.26543E-3,0
SITRO-AIS 9 (SHCHUKIN),2023-091AM,2026-07-04T04:29:20.991264,15.38765397,.0006215,97.5068,255.8587,24.8544,335.2999,0,U,57201,999,16736,.6871276E-3,.2632E-3,0
SITRO-AIS 12 (SMIRENNIY),2023-091AQ,2026-07-04T04:11:11.035392,15.39058234,.0005734,97.5081,256.3236,18.9361,341.2096,0,U,57204,999,16738,.65329275E-3,.25254E-3,0
SITRO-AIS 11 (SHEFFER),2023-091AU,2026-07-04T04:23:40.397280,15.39493382,.00056433,97.5077,256.5902,18.8665,341.2788,0,U,57208,999,16740,.74840384E-3,.29373E-3,0
SITRO-AIS 25,2024-039R,2026-07-04T06:13:44.425344,14.93599485,.01422318,95.3897,246.8246,268.2763,90.2168,0,U,59066,999,12727,.32060512E-3,.4093E-4,0
SITRO-AIS 26,2024-039S,2026-07-04T06:19:05.282976,14.93392380,.01425781,95.3898,246.7213,268.8818,89.6070,0,U,59067,999,12726,.28221047E-3,.3581E-4,0
SITRO-AIS 27,2024-039T,2026-07-04T07:05:47.234112,14.93811664,.01417781,95.3897,247.0234,267.3084,91.1907,0,U,59068,999,12729,.25396282E-3,.3249E-4,0
SITRO-AIS 28,2024-039U,2026-07-04T06:32:45.146400,14.93848266,.01415558,95.3902,247.0559,267.2421,91.2596,0,U,59071,999,12729,.24794028E-3,.3172E-4,0
GRBBETA,2024-128C,2026-07-04T05:02:04.147008,15.06748216,.0038483,61.9890,156.5373,138.2596,222.1444,0,U,60237,999,10883,.31959551E-3,.4639E-4,0
OOV-CUBE (TUBSAT-30),2024-128F,2026-07-04T05:19:58.322784,15.02838616,.00424879,61.9937,166.1691,137.5173,222.9219,0,U,60240,999,10867,.20571144E-3,.2609E-4,0
ROBUSTA-3A (MEDITERRANEE),2024-128J,2026-07-04T06:23:07.713600,15.11860792,.00394043,61.9859,147.8386,131.3870,229.0624,0,U,60243,999,10900,.57046878E-3,.9779E-4,0
LASARSAT,2024-247Q,2026-07-02T23:48:38.801664,15.47314006,.00065476,44.9721,173.3382,74.4054,285.7559,0,U,62391,999,8576,.62059177E-3,.32189E-3,0
CROCUBE,2024-247T,2026-07-02T06:15:31.098240,15.49290769,.0006479,44.9691,174.5342,75.1846,284.9762,0,U,62394,999,8568,.78103E-3,.43599E-3,0
FORESAIL-1 PRIME,2025-276DS,2026-07-04T03:02:16.078272,15.18858225,.00036025,97.4191,258.0885,68.3680,291.7938,0,U,66778,999,3297,.29203351E-3,.602E-4,0
KNACKSAT-2,1998-067XZ,2026-07-03T19:21:23.190624,15.61443080,.00083167,51.6260,210.7913,287.3397,72.6687,0,U,67683,999,2287,.57863419E-3,.50278E-3,0
